[{"OBJECT_NAME":"STARLINK-30840","OBJECT_ID":"2023-170T","EPOCH":"2026-03-09T15:55:35.849568","MEAN_MOTION":15.2673242,"ECCENTRICITY":0.0001899,"INCLINATION":42.9963,"RA_OF_ASC_NODE":194.5006,"ARG_OF_PERICENTER":169.1823,"MEAN_ANOMALY":190.907,"EPHEMERIS_TYPE":0,"CLASSIFICATION_TYPE":"U","NORAD_CAT_ID":58223,"ELEMENT_SET_NO":999,"REV_AT_EPOCH":13029,"BSTAR":-3.2406398e-5,"MEAN_MOTION_DOT":-1.129e-5,"MEAN_MOTION_DDOT":0},{"OBJECT_NAME":"OBJECT F","OBJECT_ID":"2025-108F","EPOCH":"2026-03-09T23:20:53.522880","MEAN_MOTION":15.23792837,"ECCENTRICITY":0.00112374,"INCLINATION":97.4753,"RA_OF_ASC_NODE":146.7616,"ARG_OF_PERICENTER":356.2264,"MEAN_ANOMALY":3.8886,"EPHEMERIS_TYPE":0,"CLASSIFICATION_TYPE":"U","NORAD_CAT_ID":64092,"ELEMENT_SET_NO":999,"REV_AT_EPOCH":4437,"BSTAR":0.0010326251,"MEAN_MOTION_DOT":0.00024889,"MEAN_MOTION_DDOT":0}]
